{
  "type": "FeatureCollection",
  "features": [
    {
      "type": "Feature",
      "properties": {
        "norad_id": 2807,
        "name": "OPS 7218 (TRANSIT 16)",
        "group": "nnss",
        "lat": -50.86809457693271,
        "lon": 174.14894270801588,
        "alt_km": 1088.9045073106745,
        "timestamp": "2025-12-20T20:38:44.711210+00:00",
        "meta_object_name": "OPS 7218 (TRANSIT 16)",
        "meta_object_id": "1967-048A",
        "meta_epoch": "2025-12-20T13:00:34.079040",
        "meta_mean_motion": 13.50723861,
        "meta_eccentricity": 0.00221456,
        "meta_inclination": 89.6731,
        "meta_ra_of_asc_node": 353.7574,
        "meta_arg_of_pericenter": 93.2861,
        "meta_mean_anomaly": 31.0798,
        "meta_ephemeris_type": 0,
        "meta_classification_type": "U",
        "meta_norad_cat_id": 2807,
        "meta_element_set_no": 999,
        "meta_rev_at_epoch": 88381,
        "meta_bstar": 0.00014696914,
        "meta_mean_motion_dot": 1.05e-06,
        "meta_mean_motion_ddot": 0,
        "tle_line1": "1 02807U 67048A   25354.54206110  .00000105  00000+0  14697-3 0  9995",
        "tle_line2": "2 02807  89.6731 353.7574 0022145  93.2861  31.0798 13.50723861883812"
      },
      "geometry": {
        "type": "Point",
        "coordinates": [
          174.14894270801588,
          -50.86809457693271
        ]
      }
    },
    {
      "type": "Feature",
      "properties": {
        "norad_id": 2965,
        "name": "OPS 4947 (TRANSIT 17)",
        "group": "nnss",
        "lat": 14.898324119286201,
        "lon": 24.01628903210679,
        "alt_km": 1093.896590846909,
        "timestamp": "2025-12-20T20:38:44.711231+00:00",
        "meta_object_name": "OPS 4947 (TRANSIT 17)",
        "meta_object_id": "1967-092A",
        "meta_epoch": "2025-12-20T03:07:42.632256",
        "meta_mean_motion": 13.53455414,
        "meta_eccentricity": 0.00466956,
        "meta_inclination": 89.2488,
        "meta_ra_of_asc_node": 23.8719,
        "meta_arg_of_pericenter": 212.481,
        "meta_mean_anomaly": 208.1838,
        "meta_ephemeris_type": 0,
        "meta_classification_type": "U",
        "meta_norad_cat_id": 2965,
        "meta_element_set_no": 999,
        "meta_rev_at_epoch": 87197,
        "meta_bstar": 0.00019201817,
        "meta_mean_motion_dot": 1.41e-06,
        "meta_mean_motion_ddot": 0,
        "tle_line1": "1 02965U 67092A   25354.13035454  .00000141  00000+0  19202-3 0  9992",
        "tle_line2": "2 02965  89.2488  23.8719 0046695 212.4810 208.1838 13.53455414871978"
      },
      "geometry": {
        "type": "Point",
        "coordinates": [
          24.01628903210679,
          14.898324119286201
        ]
      }
    },
    {
      "type": "Feature",
      "properties": {
        "norad_id": 3133,
        "name": "OPS 7034 (TRANSIT 18)",
        "group": "nnss",
        "lat": 71.56481151744589,
        "lon": 93.74714697498317,
        "alt_km": 1015.379503809656,
        "timestamp": "2025-12-20T20:38:44.711245+00:00",
        "meta_object_name": "OPS 7034 (TRANSIT 18)",
        "meta_object_id": "1968-012A",
        "meta_epoch": "2025-12-20T06:27:21.173184",
        "meta_mean_motion": 13.5156736,
        "meta_eccentricity": 0.0074579,
        "meta_inclination": 90.0284,
        "meta_ra_of_asc_node": 273.6602,
        "meta_arg_of_pericenter": 147.4281,
        "meta_mean_anomaly": 326.4183,
        "meta_ephemeris_type": 0,
        "meta_classification_type": "U",
        "meta_norad_cat_id": 3133,
        "meta_element_set_no": 999,
        "meta_rev_at_epoch": 57020,
        "meta_bstar": 0.000156,
        "meta_mean_motion_dot": 1.13e-06,
        "meta_mean_motion_ddot": 0,
        "tle_line1": "1 03133U 68012A   25354.26899506  .00000113  00000+0  15600-3 0  9990",
        "tle_line2": "2 03133  90.0284 273.6602 0074579 147.4281 326.4183 13.51567360570208"
      },
      "geometry": {
        "type": "Point",
        "coordinates": [
          93.74714697498317,
          71.56481151744589
        ]
      }
    },
    {
      "type": "Feature",
      "properties": {
        "norad_id": 4507,
        "name": "NNSS 19 (TRANSIT 19)",
        "group": "nnss",
        "lat": 73.56804111444687,
        "lon": -125.47788055173334,
        "alt_km": 1182.1623595220663,
        "timestamp": "2025-12-20T20:38:44.711257+00:00",
        "meta_object_name": "NNSS 19 (TRANSIT 19)",
        "meta_object_id": "1970-067A",
        "meta_epoch": "2025-12-20T14:56:41.153856",
        "meta_mean_motion": 13.51316588,
        "meta_eccentricity": 0.01702387,
        "meta_inclination": 90.0051,
        "meta_ra_of_asc_node": 234.5393,
        "meta_arg_of_pericenter": 270.3112,
        "meta_mean_anomaly": 87.8534,
        "meta_ephemeris_type": 0,
        "meta_classification_type": "U",
        "meta_norad_cat_id": 4507,
        "meta_element_set_no": 999,
        "meta_rev_at_epoch": 72328,
        "meta_bstar": 0.00013507969,
        "meta_mean_motion_dot": 1.04e-06,
        "meta_mean_motion_ddot": 0,
        "tle_line1": "1 04507U 70067A   25354.62269854  .00000104  00000+0  13508-3 0  9991",
        "tle_line2": "2 04507  90.0051 234.5393 0170238 270.3112  87.8534 13.51316588723287"
      },
      "geometry": {
        "type": "Point",
        "coordinates": [
          -125.47788055173334,
          73.56804111444687
        ]
      }
    },
    {
      "type": "Feature",
      "properties": {
        "norad_id": 6909,
        "name": "NNSS 20 (TRANSIT 20)",
        "group": "nnss",
        "lat": 11.773141317955726,
        "lon": -105.03752683568963,
        "alt_km": 909.7057424014174,
        "timestamp": "2025-12-20T20:38:44.711268+00:00",
        "meta_object_name": "NNSS 20 (TRANSIT 20)",
        "meta_object_id": "1973-081A",
        "meta_epoch": "2025-12-20T06:34:53.194656",
        "meta_mean_motion": 13.71437993,
        "meta_eccentricity": 0.01564201,
        "meta_inclination": 89.8562,
        "meta_ra_of_asc_node": 254.9413,
        "meta_arg_of_pericenter": 56.0029,
        "meta_mean_anomaly": 305.5882,
        "meta_ephemeris_type": 0,
        "meta_classification_type": "U",
        "meta_norad_cat_id": 6909,
        "meta_element_set_no": 999,
        "meta_rev_at_epoch": 80464,
        "meta_bstar": 0.00024104976,
        "meta_mean_motion_dot": 2.48e-06,
        "meta_mean_motion_ddot": 0,
        "tle_line1": "1 06909U 73081A   25354.27422679  .00000248  00000+0  24105-3 0  9999",
        "tle_line2": "2 06909  89.8562 254.9413 0156420  56.0029 305.5882 13.71437993804642"
      },
      "geometry": {
        "type": "Point",
        "coordinates": [
          -105.03752683568963,
          11.773141317955726
        ]
      }
    },
    {
      "type": "Feature",
      "properties": {
        "norad_id": 10457,
        "name": "TRANSAT",
        "group": "nnss",
        "lat": 8.591165934659987,
        "lon": 78.36281459324044,
        "alt_km": 1095.8865947629029,
        "timestamp": "2025-12-20T20:38:44.711278+00:00",
        "meta_object_name": "TRANSAT",
        "meta_object_id": "1977-106A",
        "meta_epoch": "2025-12-20T04:51:30.137760",
        "meta_mean_motion": 13.48944672,
        "meta_eccentricity": 0.00261,
        "meta_inclination": 89.648,
        "meta_ra_of_asc_node": 78.3329,
        "meta_arg_of_pericenter": 168.1289,
        "meta_mean_anomaly": 248.1407,
        "meta_ephemeris_type": 0,
        "meta_classification_type": "U",
        "meta_norad_cat_id": 10457,
        "meta_element_set_no": 999,
        "meta_rev_at_epoch": 36844,
        "meta_bstar": 0.00011685506,
        "meta_mean_motion_dot": 8.4e-07,
        "meta_mean_motion_ddot": 0,
        "tle_line1": "1 10457U 77106A   25354.20243215  .00000084  00000+0  11686-3 0  9992",
        "tle_line2": "2 10457  89.6480  78.3329 0026100 168.1289 248.1407 13.48944672368449"
      },
      "geometry": {
        "type": "Point",
        "coordinates": [
          78.36281459324044,
          8.591165934659987
        ]
      }
    },
    {
      "type": "Feature",
      "properties": {
        "norad_id": 12458,
        "name": "NOVA 1",
        "group": "nnss",
        "lat": -61.206849908455084,
        "lon": -88.4614774262436,
        "alt_km": 1190.4926755053675,
        "timestamp": "2025-12-20T20:38:44.711289+00:00",
        "meta_object_name": "NOVA 1",
        "meta_object_id": "1981-044A",
        "meta_epoch": "2025-12-20T12:13:47.959968",
        "meta_mean_motion": 13.23279081,
        "meta_eccentricity": 0.00158545,
        "meta_inclination": 89.8528,
        "meta_ra_of_asc_node": 91.2755,
        "meta_arg_of_pericenter": 84.9093,
        "meta_mean_anomaly": 286.6747,
        "meta_ephemeris_type": 0,
        "meta_classification_type": "U",
        "meta_norad_cat_id": 12458,
        "meta_element_set_no": 999,
        "meta_rev_at_epoch": 15289,
        "meta_bstar": 7.1367628e-05,
        "meta_mean_motion_dot": 3.9e-07,
        "meta_mean_motion_ddot": 0,
        "tle_line1": "1 12458U 81044A   25354.50958287  .00000039  00000+0  71368-4 0  9990",
        "tle_line2": "2 12458  89.8528  91.2755 0015854  84.9093 286.6747 13.23279081152898"
      },
      "geometry": {
        "type": "Point",
        "coordinates": [
          -88.4614774262436,
          -61.206849908455084
        ]
      }
    }
  ]
}